{"type": "FeatureCollection", "features": [ {"type": "Feature", "properties": {"norad_id": 36437, "name": "COSMOS 2251 DEB", "group": "cosmos-2251-debris", "lat": -51.19895553556655, "lon": -112.6335420777669, "alt_km": 654.0978526346862, "timestamp": "2025-12-06T09:34:17.311377+00:00", "meta": {"OBJECT_NAME": "COSMOS 2251 DEB", "OBJECT_ID": "1993-036BAL", "EPOCH": "2025-12-05T11:16:55.990272", "MEAN_MOTION": 14.70490774, "ECCENTRICITY": 0.00232458, "INCLINATION": 73.9433, "RA_OF_ASC_NODE": 48.1884, "ARG_OF_PERICENTER": 279.6515, "MEAN_ANOMALY": 80.203, "EPHEMERIS_TYPE": 0, "CLASSIFICATION_TYPE": "U", "NORAD_CAT_ID": 36437, "ELEMENT_SET_NO": 999, "REV_AT_EPOCH": 65944, "BSTAR": 0.0028359965, "MEAN_MOTION_DOT": 0.00017283, "MEAN_MOTION_DDOT": 0}, "tle": {"line1": "1 36437U 93036BAL 25339.47009248  .00017283  00000+0  28360-2 0  9991", "line2": "2 36437  73.9433  48.1884 0023245 279.6515  80.2030 14.70490774659442"}}, "geometry": {"type": "Point", "coordinates": [-112.6335420777669, -51.19895553556655]}}, {"type": "Feature", "properties": {"norad_id": 36439, "name": "COSMOS 2251 DEB", "group": "cosmos-2251-debris", "lat": 73.82305449036323, "lon": 129.2012256970703, "alt_km": 941.355539506676, "timestamp": "2025-12-06T09:34:17.311387+00:00", "meta": {"OBJECT_NAME": "COSMOS 2251 DEB", "OBJECT_ID": "1993-036BAN", "EPOCH": "2025-12-05T22:28:46.090848", "MEAN_MOTION": 13.47775996, "ECCENTRICITY": 0.04274442, "INCLINATION": 73.9681, "RA_OF_ASC_NODE": 47.5726, "ARG_OF_PERICENTER": 20.8517, "MEAN_ANOMALY": 340.9445, "EPHEMERIS_TYPE": 0, "CLASSIFICATION_TYPE": "U", "NORAD_CAT_ID": 36439, "ELEMENT_SET_NO": 999, "REV_AT_EPOCH": 58521, "BSTAR": 0.0012545098, "MEAN_MOTION_DOT": 1.329e-05, "MEAN_MOTION_DDOT": 0}, "tle": {"line1": "1 36439U 93036BAN 25339.93664457  .00001329  00000+0  12545-2 0  9995", "line2": "2 36439  73.9681  47.5726 0427444  20.8517 340.9445 13.47775996585218"}}, "geometry": {"type": "Point", "coordinates": [129.2012256970703, 73.82305449036323]}}, {"type": "Feature", "properties": {"norad_id": 36441, "name": "COSMOS 2251 DEB", "group": "cosmos-2251-debris", "lat": -49.34595391173431, "lon": -157.3180067875489, "alt_km": 599.1264382650752, "timestamp": "2025-12-06T09:34:17.311397+00:00", "meta": {"OBJECT_NAME": "COSMOS 2251 DEB", "OBJECT_ID": "1993-036BAQ", "EPOCH": "2025-12-04T18:18:25.005024", "MEAN_MOTION": 15.06603971, "ECCENTRICITY": 0.01084902, "INCLINATION": 73.8352, "RA_OF_ASC_NODE": 6.3404, "ARG_OF_PERICENTER": 107.4279, "MEAN_ANOMALY": 253.8807, "EPHEMERIS_TYPE": 0, "CLASSIFICATION_TYPE": "U", "NORAD_CAT_ID": 36441, "ELEMENT_SET_NO": 999, "REV_AT_EPOCH": 86845, "BSTAR": 0.00090032635, "MEAN_MOTION_DOT": 0.00015248, "MEAN_MOTION_DDOT": 0}, "tle": {"line1": "1 36441U 93036BAQ 25338.76278941  .00015248  00000+0  90033-3 0  9991", "line2": "2 36441  73.8352   6.3404 0108490 107.4279 253.8807 15.06603971868459"}}, "geometry": {"type": "Point", "coordinates": [-157.3180067875489, -49.34595391173431]}}, {"type": "Feature", "properties": {"norad_id": 36442, "name": "COSMOS 2251 DEB", "group": "cosmos-2251-debris", "lat": -57.239085444634405, "lon": -100.62645356124517, "alt_km": 491.8464919097232, "timestamp": "2025-12-06T09:34:17.311407+00:00", "meta": {"OBJECT_NAME": "COSMOS 2251 DEB", "OBJECT_ID": "1993-036BAR", "EPOCH": "2025-11-30T23:26:58.990560", "MEAN_MOTION": 15.24721511, "ECCENTRICITY": 0.00074124, "INCLINATION": 73.9503, "RA_OF_ASC_NODE": 64.3117, "ARG_OF_PERICENTER": 319.957, "MEAN_ANOMALY": 40.1082, "EPHEMERIS_TYPE": 0, "CLASSIFICATION_TYPE": "U", "NORAD_CAT_ID": 36442, "ELEMENT_SET_NO": 999, "REV_AT_EPOCH": 85736, "BSTAR": 0.0052461948, "MEAN_MOTION_DOT": 0.00132297, "MEAN_MOTION_DDOT": 0}, "tle": {"line1": "1 36442U 93036BAR 25334.97707165  .00132297  00000+0  52462-2 0  9993", "line2": "2 36442  73.9503  64.3117 0007412 319.9570  40.1082 15.24721511857361"}}, "geometry": {"type": "Point", "coordinates": [-100.62645356124517, -57.239085444634405]}}, {"type": "Feature", "properties": {"norad_id": 36451, "name": "COSMOS 2251 DEB", "group": "cosmos-2251-debris", "lat": 70.78318835507642, "lon": 110.95459827279659, "alt_km": 778.670471518426, "timestamp": "2025-12-06T09:34:17.311418+00:00", "meta": {"OBJECT_NAME": "COSMOS 2251 DEB", "OBJECT_ID": "1993-036BBA", "EPOCH": "2025-12-02T18:46:44.967360", "MEAN_MOTION": 14.18689973, "ECCENTRICITY": 0.01846109, "INCLINATION": 73.9543, "RA_OF_ASC_NODE": 353.0964, "ARG_OF_PERICENTER": 179.7047, "MEAN_ANOMALY": 180.4241, "EPHEMERIS_TYPE": 0, "CLASSIFICATION_TYPE": "U", "NORAD_CAT_ID": 36451, "ELEMENT_SET_NO": 999, "REV_AT_EPOCH": 84084, "BSTAR": 0.00098989344, "MEAN_MOTION_DOT": 2.407e-05, "MEAN_MOTION_DDOT": 0}, "tle": {"line1": "1 36451U 93036BBA 25336.78246490  .00002407  00000+0  98989-3 0  9997", "line2": "2 36451  73.9543 353.0964 0184610 179.7047 180.4241 14.18689973840847"}}, "geometry": {"type": "Point", "coordinates": [110.95459827279659, 70.78318835507642]}}, {"type": "Feature", "properties": {"norad_id": 36453, "name": "COSMOS 2251 DEB", "group": "cosmos-2251-debris", "lat": -52.59351768701978, "lon": 142.27303240458775, "alt_km": 752.5757013054581, "timestamp": "2025-12-06T09:34:17.311428+00:00", "meta": {"OBJECT_NAME": "COSMOS 2251 DEB", "OBJECT_ID": "1993-036BBC", "EPOCH": "2025-12-05T22:56:55.070880", "MEAN_MOTION": 14.52531816, "ECCENTRICITY": 0.00702998, "INCLINATION": 73.9232, "RA_OF_ASC_NODE": 165.2675, "ARG_OF_PERICENTER": 70.5371, "MEAN_ANOMALY": 80.8599, "EPHEMERIS_TYPE": 0, "CLASSIFICATION_TYPE": "U", "NORAD_CAT_ID": 36453, "ELEMENT_SET_NO": 999, "REV_AT_EPOCH": 84369, "BSTAR": 0.0014781095, "MEAN_MOTION_DOT": 6.214e-05, "MEAN_MOTION_DDOT": 0}, "tle": {"line1": "1 36453U 93036BBC 25339.95619295  .00006214  00000+0  14781-2 0  9995", "line2": "2 36453  73.9232 165.2675 0070299  70.5371  80.8599 14.52531816843696"}}, "geometry": {"type": "Point", "coordinates": [142.27303240458775, -52.59351768701978]}}, {"type": "Feature", "properties": {"norad_id": 36459, "name": "COSMOS 2251 DEB", "group": "cosmos-2251-debris", "lat": 70.89138345872772, "lon": 135.61579340284504, "alt_km": 715.7146997761483, "timestamp": "2025-12-06T09:34:17.311438+00:00", "meta": {"OBJECT_NAME": "COSMOS 2251 DEB", "OBJECT_ID": "1993-036BBJ", "EPOCH": "2025-11-27T21:25:14.011392", "MEAN_MOTION": 14.2626117, "ECCENTRICITY": 0.0114133, "INCLINATION": 74.0487, "RA_OF_ASC_NODE": 26.6161, "ARG_OF_PERICENTER": 126.4072, "MEAN_ANOMALY": 234.7668, "EPHEMERIS_TYPE": 0, "CLASSIFICATION_TYPE": "U", "NORAD_CAT_ID": 36459, "ELEMENT_SET_NO": 999, "REV_AT_EPOCH": 7670, "BSTAR": 0.0017749, "MEAN_MOTION_DOT": 4.537e-05, "MEAN_MOTION_DDOT": 0}, "tle": {"line1": "1 36459U 93036BBJ 25331.89252328  .00004537  00000+0  17749-2 0  9999", "line2": "2 36459  74.0487  26.6161 0114133 126.4072 234.7668 14.26261170 76702"}}, "geometry": {"type": "Point", "coordinates": [135.61579340284504, 70.89138345872772]}}, {"type": "Feature", "properties": {"norad_id": 36470, "name": "COSMOS 2251 DEB", "group": "cosmos-2251-debris", "lat": 66.97897976166023, "lon": 44.57200431301029, "alt_km": 526.5417684040594, "timestamp": "2025-12-06T09:34:17.311449+00:00", "meta": {"OBJECT_NAME": "COSMOS 2251 DEB", "OBJECT_ID": "1993-036BBV", "EPOCH": "2025-12-02T03:03:18.136800", "MEAN_MOTION": 15.05586615, "ECCENTRICITY": 0.00218493, "INCLINATION": 73.8455, "RA_OF_ASC_NODE": 276.4446, "ARG_OF_PERICENTER": 104.1241, "MEAN_ANOMALY": 256.2378, "EPHEMERIS_TYPE": 0, "CLASSIFICATION_TYPE": "U", "NORAD_CAT_ID": 36470, "ELEMENT_SET_NO": 999, "REV_AT_EPOCH": 65934, "BSTAR": 0.0040110233, "MEAN_MOTION_DOT": 0.00058582, "MEAN_MOTION_DDOT": 0}, "tle": {"line1": "1 36470U 93036BBV 25336.12729325  .00058582  00000+0  40110-2 0  9996", "line2": "2 36470  73.8455 276.4446 0021849 104.1241 256.2378 15.05586615659346"}}, "geometry": {"type": "Point", "coordinates": [44.57200431301029, 66.97897976166023]}}, {"type": "Feature", "properties": {"norad_id": 36528, "name": "COSMOS 2251 DEB", "group": "cosmos-2251-debris", "lat": 59.50126869903876, "lon": -52.33714775730586, "alt_km": 784.7004721866779, "timestamp": "2025-12-06T09:34:17.311459+00:00", "meta": {"OBJECT_NAME": "COSMOS 2251 DEB", "OBJECT_ID": "1993-036BCN", "EPOCH": "2025-11-28T19:45:32.756256", "MEAN_MOTION": 14.30521775, "ECCENTRICITY": 0.00858193, "INCLINATION": 74.0168, "RA_OF_ASC_NODE": 170.5765, "ARG_OF_PERICENTER": 223.2164, "MEAN_ANOMALY": 136.2231, "EPHEMERIS_TYPE": 0, "CLASSIFICATION_TYPE": "U", "NORAD_CAT_ID": 36528, "ELEMENT_SET_NO": 999, "REV_AT_EPOCH": 64228, "BSTAR": 0.00075224171, "MEAN_MOTION_DOT": 2.015e-05, "MEAN_MOTION_DDOT": 0}, "tle": {"line1": "1 36528U 93036BCN 25332.82329579  .00002015  00000+0  75224-3 0  9995", "line2": "2 36528  74.0168 170.5765 0085819 223.2164 136.2231 14.30521775642289"}}, "geometry": {"type": "Point", "coordinates": [-52.33714775730586, 59.50126869903876]}}, {"type": "Feature", "properties": {"norad_id": 36533, "name": "COSMOS 2251 DEB", "group": "cosmos-2251-debris", "lat": -16.893501046376343, "lon": -48.2549597928643, "alt_km": 724.3549986156477, "timestamp": "2025-12-06T09:34:17.311469+00:00", "meta": {"OBJECT_NAME": "COSMOS 2251 DEB", "OBJECT_ID": "1993-036BCT", "EPOCH": "2025-12-05T09:28:22.802304", "MEAN_MOTION": 14.49771796, "ECCENTRICITY": 0.00491042, "INCLINATION": 74.0105, "RA_OF_ASC_NODE": 128.6364, "ARG_OF_PERICENTER": 279.0553, "MEAN_ANOMALY": 80.5052, "EPHEMERIS_TYPE": 0, "CLASSIFICATION_TYPE": "U", "NORAD_CAT_ID": 36533, "ELEMENT_SET_NO": 999, "REV_AT_EPOCH": 84378, "BSTAR": 0.00081257397, "MEAN_MOTION_DOT": 3.153e-05, "MEAN_MOTION_DDOT": 0}, "tle": {"line1": "1 36533U 93036BCT 25339.39470836  .00003153  00000+0  81257-3 0  9990", "line2": "2 36533  74.0105 128.6364 0049104 279.0553  80.5052 14.49771796843783"}}, "geometry": {"type": "Point", "coordinates": [-48.2549597928643, -16.893501046376343]}}]}